NORAD_CAT_ID,OBJECT_NAME,OBJECT_TYPE,EPOCH,MEAN_MOTION,ECCENTRICITY,INCLINATION,RA_OF_ASC_NODE,ARG_OF_PERICENTER,MEAN_ANOMALY,BSTAR,MEAN_MOTION_DOT,MEAN_MOTION_DDOT,TLE_LINE0,TLE_LINE1,TLE_LINE2,SEMIMAJOR_AXIS,PERIOD,APOGEE,PERIGEE,DECAYED
49141.0,STARLINK-3093,PAYLOAD,2022-09-30 08:26:10,14.98339812,0.0003273999999999,70.0021,222.1128,247.4163,112.665,0.00035455,4.141e-05,0.0,0 STARLINK-3093,1 49141U 21082M   22273.35151242  .00004141  00000-0  35455-3 0  9996,2 49141  70.0021 222.1128 0003274 247.4163 112.6650 14.98339812 58992,6950.163000000001,96.106,574.303,569.752,0.0
49141.0,STARLINK-3093,PAYLOAD,2022-10-01 08:28:10,14.98347838,0.0003193,70.0018,219.5877,245.2172,114.8655,-0.00013441,-1.697e-05,0.0,0 STARLINK-3093,1 49141U 21082M   22274.35290193 -.00001697  00000-0 -13441-3 0  9992,2 49141  70.0018 219.5877 0003193 245.2172 114.8655 14.98347838 59149,6950.138000000001,96.106,574.222,569.784,0.0
49141.0,STARLINK-3093,PAYLOAD,2022-10-01 21:17:15,14.98341352,0.0003447,70.0016,218.2413,249.8047,110.2741,0.00019726,2.262e-05,0.0,0 STARLINK-3093,1 49141U 21082M   22274.88698444  .00002262  00000-0  19726-3 0  9990,2 49141  70.0016 218.2413 0003447 249.8047 110.2741 14.98341352 59222,6950.158,96.106,574.419,569.627,0.0
49141.0,STARLINK-3093,PAYLOAD,2022-10-02 05:17:56,14.98332905,0.0003413999999999,70.0017,217.3998,248.447,111.6326,-9.1408e-06,-2.02e-06,0.0,0 STARLINK-3093,1 49141U 21082M   22275.22078712 -.00000202  00000-0 -91408-5 0  9992,2 49141  70.0017 217.3998 0003414 248.4470 111.6326 14.98332905 59273,6950.184,96.107,574.422,569.6759999999998,0.0
49141.0,STARLINK-3093,PAYLOAD,2022-10-02 08:30:12,14.98322314,0.0003015,70.0026,217.0636,250.7357,109.3476,-0.00016662,-2.08e-05,0.0,0 STARLINK-3093,1 49141U 21082M   22275.35431412 -.00002080  00000-0 -16662-3 0  9999,2 49141  70.0026 217.0636 0003015 250.7357 109.3476 14.98322314 59291,6950.217,96.107,574.177,569.986,0.0
49141.0,STARLINK-3093,PAYLOAD,2022-10-03 03:43:49,14.98336242,0.0003454,70.0019,215.0436,248.6829,111.3962,0.00023182,2.675e-05,0.0,0 STARLINK-3093,1 49141U 21082M   22276.15542853  .00002675  00000-0  23182-3 0  9993,2 49141  70.0019 215.0436 0003454 248.6829 111.3962 14.98336242 59418,6950.174,96.107,574.439,569.638,0.0
49141.0,STARLINK-3093,PAYLOAD,2022-10-03 13:20:37,14.98346723,0.000339,70.0025,214.0339,248.8219,111.2578,0.00069948,8.267e-05,0.0,0 STARLINK-3093,1 49141U 21082M   22276.55598407  .00008267  00000-0  69948-3 0  9996,2 49141  70.0025 214.0339 0003390 248.8219 111.2578 14.98346723 59473,6950.141,96.106,574.362,569.65,0.0
49141.0,STARLINK-3093,PAYLOAD,2022-10-04 02:09:41,14.98344679,0.0003481,70.002,212.6871,250.3252,109.7532,0.00051156,6.019e-05,0.0,0 STARLINK-3093,1 49141U 21082M   22277.09006096  .00006019  00000-0  51156-3 0  9999,2 49141  70.0020 212.6871 0003481 250.3252 109.7532 14.98344679 59558,6950.147,96.106,574.432,569.5930000000002,0.0
49141.0,STARLINK-3093,PAYLOAD,2022-10-04 13:22:37,14.98341432,0.0003449,70.0025,211.5095,249.8831,110.1957,0.00031352,3.651e-05,0.0,0 STARLINK-3093,1 49141U 21082M   22277.55737949  .00003651  00000-0  31352-3 0  9993,2 49141  70.0025 211.5095 0003449 249.8831 110.1957 14.98341432 59628,6950.158,96.106,574.42,569.625,0.0
49141.0,STARLINK-3093,PAYLOAD,2022-10-05 05:23:57,14.98339448,0.0003474,70.0027,209.8263,247.6941,112.385,0.00010631,1.176e-05,0.0,0 STARLINK-3093,1 49141U 21082M   22278.22497663  .00001176  00000-0  10631-3 0  9991,2 49141  70.0027 209.8263 0003474 247.6941 112.3850 14.98339448 59724,6950.1640000000025,96.106,574.443,569.614,0.0
49141.0,STARLINK-3093,PAYLOAD,2022-10-05 21:25:19,14.98328448,0.0003376999999999,70.0028,208.1431,247.1671,112.9131,-0.00021236,-2.626e-05,0.0,0 STARLINK-3093,1 49141U 21082M   22278.89258186 -.00002626  00000-0 -21236-3 0  9995,2 49141  70.0028 208.1431 0003377 247.1671 112.9131 14.98328448 59828,6950.198,96.107,574.41,569.716,0.0
49141.0,STARLINK-3093,PAYLOAD,2022-10-06 02:13:43,14.9832389,0.0003424,70.002,207.6403,247.1036,112.9762,-3.8637e-05,-5.54e-06,0.0,0 STARLINK-3093,1 49141U 21082M   22279.09286891 -.00000554  00000-0 -38637-4 0  9994,2 49141  70.0020 207.6403 0003424 247.1036 112.9762 14.98323890 59850,6950.212,96.107,574.457,569.697,0.0
49141.0,STARLINK-3093,PAYLOAD,2022-10-06 07:02:07,14.98332176,0.0003595,70.0015,207.1347,249.0579,111.0195,1.5053e-06,-7.5e-07,0.0,0 STARLINK-3093,1 49141U 21082M   22279.29314318 -.00000075  00000-0  15053-5 0  9997,2 49141  70.0015 207.1347 0003595 249.0579 111.0195 14.98332176 59888,6950.186,96.107,574.55,569.553,0.0
49141.0,STARLINK-3093,PAYLOAD,2022-10-06 19:51:11,14.98333202,0.0003538,70.0019,205.7867,244.3864,115.693,0.00012044,1.344e-05,0.0,0 STARLINK-3093,1 49141U 21082M   22279.82721945  .00001344  00000-0  12044-3 0  9998,2 49141  70.0019 205.7867 0003538 244.3864 115.6930 14.98333202 59962,6950.183000000001,96.107,574.507,569.589,0.0
49141.0,STARLINK-3093,PAYLOAD,2022-10-07 02:15:44,14.98326967,0.0003658,70.0015,205.1148,250.8457,109.2306,0.00013654,1.536e-05,0.0,0 STARLINK-3093,1 49141U 21082M   22280.09426358  .00001536  00000-0  13654-3 0  9990,2 49141  70.0015 205.1148 0003658 250.8457 109.2306 14.98326967 60000,6950.2019999999975,96.107,574.61,569.525,0.0
49141.0,STARLINK-3093,PAYLOAD,2022-10-07 07:04:07,14.98346208,0.0003813999999999,70.001,204.6086,250.0237,110.0512,0.00010241,1.13e-05,0.0,0 STARLINK-3093,1 49141U 21082M   22280.29453077  .00001130  00000-0  10241-3 0  9999,2 49141  70.0010 204.6086 0003814 250.0237 110.0512 14.98346208 60034,6950.143,96.106,574.659,569.357,0.0
49141.0,STARLINK-3093,PAYLOAD,2022-10-07 19:53:12,14.98328561,0.0003273999999999,70.002,203.2614,241.2254,118.8576,0.00030985,3.606e-05,0.0,0 STARLINK-3093,1 49141U 21082M   22280.82861738  .00003606  00000-0  30985-3 0  9992,2 49141  70.0020 203.2614 0003274 241.2254 118.8576 14.98328561 60115,6950.196999999999,96.107,574.3380000000002,569.7869999999998,0.0
49141.0,STARLINK-3093,PAYLOAD,2022-10-07 21:29:20,14.98329324,0.0003638,70.0022,203.0984,240.2316,119.8482,0.00020768,2.386e-05,0.0,0 STARLINK-3093,1 49141U 21082M   22280.89537931  .00002386  00000-0  20768-3 0  9996,2 49141  70.0022 203.0984 0003638 240.2316 119.8482 14.98329324 60123,6950.195,96.107,574.5880000000002,569.5319999999998,0.0
49141.0,STARLINK-3093,PAYLOAD,2022-10-08 03:53:54,14.9831516,0.0003158,70.0037,202.4233,225.6326,134.4575,9.6647e-05,1.06e-05,0.0,0 STARLINK-3093,1 49141U 21082M   22281.16243204  .00001060  00000-0  96647-4 0  9992,2 49141  70.0037 202.4233 0003158 225.6326 134.4575 14.98315160 60167,6950.239000000001,96.108,574.299,569.909,0.0
49141.0,STARLINK-3093,PAYLOAD,2022-10-08 11:54:33,14.983283300000002,0.0003341,70.002,201.5798,241.6753,118.4069,0.00026283,3.044e-05,0.0,0 STARLINK-3093,1 49141U 21082M   22281.49622275  .00003044  00000-0  26283-3 0  9999,2 49141  70.0020 201.5798 0003341 241.6753 118.4069 14.98328330 60210,6950.198,96.107,574.385,569.741,0.0
49141.0,STARLINK-3093,PAYLOAD,2022-10-08 19:55:13,14.98332783,0.0003452,70.0021,200.7394,236.7688,123.3141,0.00017745,2.025e-05,0.0,0 STARLINK-3093,1 49141U 21082M   22281.83002025  .00002025  00000-0  17745-3 0  9993,2 49141  70.0021 200.7394 0003452 236.7688 123.3141 14.98332783 60267,6950.184,96.107,574.448,569.65,0.0
49141.0,STARLINK-3093,PAYLOAD,2022-10-09 11:56:34,14.983306,0.0003333999999999,70.0041,199.0538,246.9781,113.1027,-4.7567e-05,-6.61e-06,0.0,0 STARLINK-3093,1 49141U 21082M   22282.49762078 -.00000661  00000-0 -47567-4 0  9999,2 49141  70.0041 199.0538 0003334 246.9781 113.1027 14.98330600 60362,6950.191,96.107,574.373,569.739,0.0
49141.0,STARLINK-3093,PAYLOAD,2022-10-09 19:57:14,14.98334414,0.0003325,70.0045,198.2145,241.3484,118.7341,0.00038936,4.556e-05,0.0,0 STARLINK-3093,1 49141U 21082M   22282.83141904  .00004556  00000-0  38936-3 0  9990,2 49141  70.0045 198.2145 0003325 241.3484 118.7341 14.98334414 60413,6950.179,96.107,574.355,569.7330000000002,0.0
49141.0,STARLINK-3093,PAYLOAD,2022-10-10 07:10:11,14.98333638,0.0003518,70.0032,197.0349,246.4488,113.6302,0.00026783,3.104e-05,0.0,0 STARLINK-3093,1 49141U 21082M   22283.29873862  .00003104  00000-0  26783-3 0  9991,2 49141  70.0032 197.0349 0003518 246.4488 113.6302 14.98333638 60481,6950.182,96.107,574.492,569.602,0.0
49141.0,STARLINK-3093,PAYLOAD,2022-10-10 19:59:15,14.98329811,0.0003595,70.003,195.6887,246.6457,113.4324,6.4872e-05,6.81e-06,0.0,0 STARLINK-3093,1 49141U 21082M   22283.83282001  .00000681  00000-0  64872-4 0  9999,2 49141  70.0030 195.6887 0003595 246.6457 113.4324 14.98329811 60562,6950.193,96.107,574.557,569.56,0.0
49141.0,STARLINK-3093,PAYLOAD,2022-10-11 07:12:12,14.98316674,0.0003016,70.003,194.5105,250.0992,109.9842,-0.00018055,-2.246e-05,0.0,0 STARLINK-3093,1 49141U 21082M   22284.30014898 -.00002246  00000-0 -18055-3 0  9991,2 49141  70.0030 194.5105 0003016 250.0992 109.9842 14.98316674 60630,6950.234,96.108,574.195,570.003,0.0
49141.0,STARLINK-3093,PAYLOAD,2022-10-11 20:01:17,14.98320467,0.0003594,70.0027,193.1638,247.1649,112.913,-0.00014668,-1.842e-05,0.0,0 STARLINK-3093,1 49141U 21082M   22284.83422886 -.00001842  00000-0 -14668-3 0  9996,2 49141  70.0027 193.1638 0003594 247.1649 112.9130 14.98320467 60717,6950.222,96.108,574.585,569.589,0.0
49141.0,STARLINK-3093,PAYLOAD,2022-10-12 04:01:57,14.9832462,0.0003348999999999,70.0039,192.3238,239.7146,120.3682,3.7471e-05,3.54e-06,0.0,0 STARLINK-3093,1 49141U 21082M   22285.16802910  .00000354  00000-0  37471-4 0  9996,2 49141  70.0039 192.3238 0003349 239.7146 120.3682 14.98324620 60769,6950.21,96.107,574.4019999999998,569.747,0.0
49141.0,STARLINK-3093,PAYLOAD,2022-10-12 07:14:13,14.9833316,0.0003497,70.0025,191.986,246.9436,113.1355,0.00015819,1.795e-05,0.0,0 STARLINK-3093,1 49141U 21082M   22285.30154491  .00001795  00000-0  15819-3 0  9997,2 49141  70.0025 191.9860 0003497 246.9436 113.1355 14.98333160 60784,6950.183000000001,96.107,574.479,569.618,0.0
